[{"OBJECT_NAME":"STARLINK-6094","OBJECT_ID":"2023-046AF","EPOCH":"2026-03-09T22:00:01.999584","MEAN_MOTION":15.16787641,"ECCENTRICITY":0.00013389,"INCLINATION":42.9997,"RA_OF_ASC_NODE":156.7902,"ARG_OF_PERICENTER":276.448,"MEAN_ANOMALY":201.6729,"EPHEMERIS_TYPE":0,"CLASSIFICATION_TYPE":"U","NORAD_CAT_ID":56122,"ELEMENT_SET_NO":999,"REV_AT_EPOCH":577,"BSTAR":0.059129505,"MEAN_MOTION_DOT":0.01280249,"MEAN_MOTION_DDOT":0},{"OBJECT_NAME":"VSP ROSE","OBJECT_ID":"2024-043AC","EPOCH":"2026-03-09T21:48:06.922944","MEAN_MOTION":15.27746075,"ECCENTRICITY":0.00099339,"INCLINATION":97.5443,"RA_OF_ASC_NODE":203.927,"ARG_OF_PERICENTER":232.2702,"MEAN_ANOMALY":127.7637,"EPHEMERIS_TYPE":0,"CLASSIFICATION_TYPE":"U","NORAD_CAT_ID":59124,"ELEMENT_SET_NO":999,"REV_AT_EPOCH":11182,"BSTAR":0.00025731354,"MEAN_MOTION_DOT":6.907e-5,"MEAN_MOTION_DDOT":0}]
